NORAD_CAT_ID,OBJECT_NAME,OBJECT_TYPE,EPOCH,MEAN_MOTION,ECCENTRICITY,INCLINATION,RA_OF_ASC_NODE,ARG_OF_PERICENTER,MEAN_ANOMALY,BSTAR,MEAN_MOTION_DOT,MEAN_MOTION_DDOT,TLE_LINE0,TLE_LINE1,TLE_LINE2,SEMIMAJOR_AXIS,PERIOD,APOGEE,PERIGEE,DECAYED
52533.0,STARLINK-3951,PAYLOAD,2023-09-06 19:31:07,15.08838243,0.0001953,53.2156,276.3094,72.0096,288.1109,8.9895e-05,1.143e-05,0.0,0 STARLINK-3951,1 52533U 22051A   23249.81327806  .00001143  00000-0  89895-4 0  9995,2 52533  53.2156 276.3094 0001953  72.0096 288.1109 15.08838243 73321,6917.886,95.438,541.102,538.4,0.0
52533.0,STARLINK-3951,PAYLOAD,2023-09-07 01:52:39,15.08838433,0.0001559,53.2162,275.1173,85.3145,274.8025,3.6999e-05,3.01e-06,0.0,0 STARLINK-3951,1 52533U 22051A   23250.07823789  .00000301  00000-0  36999-4 0  9998,2 52533  53.2162 275.1173 0001559  85.3145 274.8025 15.08838433 73439,6917.885,95.438,540.829,538.672,0.0
52533.0,STARLINK-3951,PAYLOAD,2023-09-07 08:14:12,15.08840443,0.0001502,53.2165,273.929,77.9357,282.1803,-8.2433e-06,-4.19e-06,0.0,0 STARLINK-3951,1 52533U 22051A   23250.34319786 -.00000419  00000-0 -82433-5 0  9992,2 52533  53.2165 273.9290 0001502  77.9357 282.1803 15.08840443 73405,6917.879,95.438,540.783,538.705,0.0
52533.0,STARLINK-3951,PAYLOAD,2023-09-08 08:05:03,15.08646537,0.0002401,53.2168,269.4679,85.6064,274.5203,0.0027457,0.00043449,0.0,0 STARLINK-3951,1 52533U 22051A   23251.33684365  .00043449  00000-0  27457-2 0  9990,2 52533  53.2168 269.4679 0002401  85.6064 274.5203 15.08646537 73620,6918.472,95.45,541.998,538.676,0.0
52533.0,STARLINK-3951,PAYLOAD,2023-09-08 12:51:06,15.08893685,0.0001708,53.2164,268.5745,94.4296,265.6891,-0.00064601,-0.0001057,0.0,0 STARLINK-3951,1 52533U 22051A   23251.53549359 -.00010570  00000-0 -64601-3 0  9999,2 52533  53.2164 268.5745 0001708  94.4296 265.6891 15.08893685 73581,6917.716,95.434,540.763,538.4,0.0
52533.0,STARLINK-3951,PAYLOAD,2023-09-09 01:34:13,15.08832859,0.0001496,53.2166,266.1947,90.4885,269.6279,4.059e-05,3.58e-06,0.0,0 STARLINK-3951,1 52533U 22051A   23252.06543932  .00000358  00000-0  40590-4 0  9992,2 52533  53.2166 266.1947 0001496  90.4885 269.6279 15.08832859 73732,6917.902,95.438,540.802,538.732,0.0
52533.0,STARLINK-3951,PAYLOAD,2023-09-09 12:41:55,15.08840523,0.0001515,53.2167,264.1127,97.0516,263.0649,6.7144e-05,7.81e-06,0.0,0 STARLINK-3951,1 52533U 22051A   23252.52911409  .00000781  00000-0  67144-4 0  9995,2 52533  53.2167 264.1127 0001515  97.0516 263.0649 15.08840523 73733,6917.879,95.438,540.792,538.696,0.0
52533.0,STARLINK-3951,PAYLOAD,2023-09-10 06:11:10,15.08837954,0.0001338,53.2165,260.8427,86.6106,273.5039,-2.0242e-07,-2.91e-06,0.0,0 STARLINK-3951,1 52533U 22051A   23253.25775924 -.00000291  00000-0 -20242-6 0  9994,2 52533  53.2165 260.8427 0001338  86.6106 273.5039 15.08837954 73912,6917.887,95.438,540.677,538.826,0.0
52533.0,STARLINK-3951,PAYLOAD,2023-09-11 01:15:49,15.08822228,0.0001473,53.2167,257.2729,95.1621,264.9539,-2.416e-05,-6.72e-06,0.0,0 STARLINK-3951,1 52533U 22051A   23254.05265721 -.00000672  00000-0 -24160-4 0  9996,2 52533  53.2167 257.2729 0001473  95.1621 264.9539 15.08822228 74037,6917.935,95.439,540.819,538.781,0.0
52533.0,STARLINK-3951,PAYLOAD,2023-09-11 07:37:21,15.08829293,0.0001492,53.2168,256.0837,94.2206,265.8956,-1.3303e-05,-5e-06,0.0,0 STARLINK-3951,1 52533U 22051A   23254.31761404 -.00000500  00000-0 -13303-4 0  9991,2 52533  53.2168 256.0837 0001492  94.2206 265.8956 15.08829293 74071,6917.913,95.438,540.81,538.746,0.0
52533.0,STARLINK-3951,PAYLOAD,2023-09-12 01:06:35,15.08838277,0.0001325,53.2169,252.8144,96.5532,263.5611,0.00013201,1.814e-05,0.0,0 STARLINK-3951,1 52533U 22051A   23255.04624856  .00001814  00000-0  13201-3 0  9994,2 52533  53.2169 252.8144 0001325  96.5532 263.5611 15.08838277 74186,6917.886,95.438,540.667,538.834,0.0
52533.0,STARLINK-3951,PAYLOAD,2023-09-12 07:28:07,15.08852725,0.0001498,53.2166,251.6251,101.3059,258.8102,8.1135e-05,1.004e-05,0.0,0 STARLINK-3951,1 52533U 22051A   23255.31120203  .00001004  00000-0  81135-4 0  9994,2 52533  53.2166 251.6251 0001498 101.3059 258.8102 15.08852725 74220,6917.841,95.437,540.743,538.67,0.0
52533.0,STARLINK-3951,PAYLOAD,2023-09-12 17:00:27,15.08842258,0.0001453,53.2166,249.839,100.2985,259.8171,0.00029968,4.485e-05,0.0,0 STARLINK-3951,1 52533U 22051A   23255.70864753  .00004485  00000-0  29968-3 0  9993,2 52533  53.2166 249.8390 0001453 100.2985 259.8171 15.08842258 74216,6917.873,95.437,540.744,538.733,0.0
52533.0,STARLINK-3951,PAYLOAD,2023-09-13 07:18:54,15.08860375,0.000144,53.2146,247.1633,99.9703,260.1452,0.00045829,7.017e-05,0.0,0 STARLINK-3951,1 52533U 22051A   23256.30480196  .00007017  00000-0  45829-3 0  9993,2 52533  53.2146 247.1633 0001440  99.9703 260.1452 15.08860375 74377,6917.818,95.436,540.679,538.687,0.0
52533.0,STARLINK-3951,PAYLOAD,2023-09-13 16:51:13,15.08848698,0.000152,53.2144,245.3792,93.1476,266.969,0.00015741,2.219e-05,0.0,0 STARLINK-3951,1 52533U 22051A   23256.70224492  .00002219  00000-0  15741-3 0  9991,2 52533  53.2144 245.3792 0001520  93.1476 266.9690 15.08848698 74432,6917.854,95.437,540.77,538.667,0.0
52533.0,STARLINK-3951,PAYLOAD,2023-09-14 08:45:05,15.08839953,0.0001484,53.2146,242.4049,100.4635,259.6524,-3.3537e-05,-8.22e-06,0.0,0 STARLINK-3951,1 52533U 22051A   23257.36464703 -.00000822  00000-0 -33537-4 0  9999,2 52533  53.2146 242.4049 0001484 100.4635 259.6524 15.08839953 74535,6917.881,95.438,540.772,538.719,0.0
52533.0,STARLINK-3951,PAYLOAD,2023-09-14 16:42:01,15.08841748,0.0001461,53.2152,240.9177,102.3618,257.7538,2.6599e-05,1.35e-06,0.0,0 STARLINK-3951,1 52533U 22051A   23257.69584781  .00000135  00000-0  26599-4 0  9999,2 52533  53.2152 240.9177 0001461 102.3618 257.7538 15.08841748 74511,6917.875,95.437,540.751,538.729,0.0
52533.0,STARLINK-3951,PAYLOAD,2023-09-15 03:49:42,15.08850901,0.0001462,53.2156,238.8358,101.3243,258.7914,0.00016377,2.32e-05,0.0,0 STARLINK-3951,1 52533U 22051A   23258.15952234  .00002320  00000-0  16377-3 0  9993,2 52533  53.2156 238.8358 0001462 101.3243 258.7914 15.08850901 74651,6917.847,95.437,540.723,538.701,0.0
52533.0,STARLINK-3951,PAYLOAD,2023-09-15 08:35:51,15.08852969,0.000151,53.2157,237.9437,103.3113,256.8047,0.00018294,2.626e-05,0.0,0 STARLINK-3951,1 52533U 22051A   23258.35824056  .00002626  00000-0  18294-3 0  9994,2 52533  53.2157 237.9437 0001510 103.3113 256.8047 15.08852969 74610,6917.841,95.437,540.75,538.661,0.0
52533.0,STARLINK-3951,PAYLOAD,2023-09-16 02:05:06,15.08842651,0.0001548,53.2166,234.6755,100.5095,259.6072,0.00019667,2.844e-05,0.0,0 STARLINK-3951,1 52533U 22051A   23259.08688588  .00002844  00000-0  19667-3 0  9990,2 52533  53.2166 234.6755 0001548 100.5095 259.6072 15.08842651 74791,6917.872,95.437,540.808,538.666,0.0
52533.0,STARLINK-3951,PAYLOAD,2023-09-16 08:26:39,15.08847032,0.000141,53.2161,233.4842,92.3617,267.7537,0.00020182,2.926e-05,0.0,0 STARLINK-3951,1 52533U 22051A   23259.35184349  .00002926  00000-0  20182-3 0  9991,2 52533  53.2161 233.4842 0001410  92.3617 267.7537 15.08847032 74767,6917.859,95.437,540.699,538.748,0.0
52533.0,STARLINK-3951,PAYLOAD,2023-09-17 01:55:54,15.0883656,0.0001497,53.2167,230.2127,96.6018,263.5144,-3.8498e-05,-9.01e-06,0.0,0 STARLINK-3951,1 52533U 22051A   23260.08048939 -.00000901  00000-0 -38498-4 0  9990,2 52533  53.2167 230.2127 0001497  96.6018 263.5144 15.08836560 74943,6917.891,95.438,540.792,538.72,0.0
52533.0,STARLINK-3951,PAYLOAD,2023-09-17 08:17:26,15.08842061,0.0001511,53.2165,229.0236,101.148,258.9682,-1.7627e-06,-3.16e-06,0.0,0 STARLINK-3951,1 52533U 22051A   23260.34544655 -.00000316  00000-0 -17627-5 0  9997,2 52533  53.2165 229.0236 0001511 101.1480 258.9682 15.08842061 74915,6917.874,95.437,540.784,538.694,0.0
52533.0,STARLINK-3951,PAYLOAD,2023-09-18 01:46:41,15.08843116,0.000148,53.2166,225.7529,97.163,262.953,8.5902e-05,1.08e-05,0.0,0 STARLINK-3951,1 52533U 22051A   23261.07408628  .00001080  00000-0  85902-4 0  9994,2 52533  53.2166 225.7529 0001480  97.1630 262.9530 15.08843116 75099,6917.871,95.437,540.76,538.712,0.0
52533.0,STARLINK-3951,PAYLOAD,2023-09-18 06:32:50,15.08849534,0.0001339,53.2161,224.8616,95.2691,264.8454,0.00017838,2.553e-05,0.0,0 STARLINK-3951,1 52533U 22051A   23261.27280276  .00002553  00000-0  17838-3 0  9991,2 52533  53.2161 224.8616 0001339  95.2691 264.8454 15.08849534 75052,6917.851,95.437,540.643,538.79,0.0
52533.0,STARLINK-3951,PAYLOAD,2023-09-19 07:59:00,15.08857091,0.0001438,53.2165,220.1026,86.8091,273.3066,0.00034499,5.209e-05,0.0,0 STARLINK-3951,1 52533U 22051A   23262.33263921  .00005209  00000-0  34499-3 0  9990,2 52533  53.2165 220.1026 0001438  86.8091 273.3066 15.08857091 75286,6917.828,95.436,540.688,538.698,0.0
52533.0,STARLINK-3951,PAYLOAD,2023-09-20 04:39:00,15.08854086,0.0001604,53.2157,216.2378,81.0102,279.1071,0.00019707,2.851e-05,0.0,0 STARLINK-3951,1 52533U 22051A   23263.19375639  .00002851  00000-0  19707-3 0  9990,2 52533  53.2157 216.2378 0001604  81.0102 279.1071 15.08854086 75414,6917.837,95.437,540.812,538.593,0.0
52533.0,STARLINK-3951,PAYLOAD,2023-09-20 14:11:20,15.08830476,0.0002124,53.2159,214.4562,82.9964,277.127,-0.00023501,-4.026e-05,0.0,0 STARLINK-3951,1 52533U 22051A   23263.59120525 -.00004026  00000-0 -23501-3 0  9991,2 52533  53.2159 214.4562 0002124  82.9964 277.1270 15.08830476 75400,6917.91,95.438,541.244,538.305,0.0
52533.0,STARLINK-3951,PAYLOAD,2023-09-20 20:32:52,15.08827728,0.0002199,53.2162,213.2636,87.4642,272.6601,-0.00028229,-4.777e-05,0.0,0 STARLINK-3951,1 52533U 22051A   23263.85616725 -.00004777  00000-0 -28229-3 0  9997,2 52533  53.2162 213.2636 0002199  87.4642 272.6601 15.08827728 75446,6917.918,95.438,541.304,538.262,0.0
52533.0,STARLINK-3951,PAYLOAD,2023-09-21 06:05:12,15.08824909,0.0001515,53.2162,211.4799,91.7037,268.4128,-0.00018889,-3.292e-05,0.0,0 STARLINK-3951,1 52533U 22051A   23264.25361228 -.00003292  00000-0 -18889-3 0  9999,2 52533  53.2162 211.4799 0001515  91.7037 268.4128 15.08824909 75505,6917.927,95.439,540.84,538.743,0.0
